{"type":"FeatureCollection","features":[{"type":"Feature","properties":{"name":"Great Sound","source_name":"Great Sound","kind":"water","priority":0,"min_zoom":10,"osm_source":"node/1930879167"},"geometry":{"type":"Point","coordinates":[-64.8576111,32.2814669]}},{"type":"Feature","properties":{"name":"Somerset Long Bay","source_name":"Somerset Long Bay Beach","kind":"reference","priority":1,"min_zoom":10,"osm_source":"way/915919000"},"geometry":{"type":"Point","coordinates":[-64.871561960047,32.3043207]}},{"type":"Feature","properties":{"name":"Spanish Point","source_name":"Spanish Point Park","kind":"reference","priority":2,"min_zoom":10,"osm_source":"way/184584796"},"geometry":{"type":"Point","coordinates":[-64.81437269846055,32.30656875]}},{"type":"Feature","properties":{"name":"Horseshoe Bay","source_name":"Horseshoe Bay Beach","kind":"reference","priority":3,"min_zoom":10,"osm_source":"way/116591351"},"geometry":{"type":"Point","coordinates":[-64.82168026958308,32.252186]}},{"type":"Feature","properties":{"name":"Elbow Beach","source_name":"Elbow Beach","kind":"reference","priority":4,"min_zoom":10,"osm_source":"way/173928971"},"geometry":{"type":"Point","coordinates":[-64.77712453613023,32.2725978]}},{"type":"Feature","properties":{"name":"Shelly Bay","source_name":"Shelly Bay Beach","kind":"reference","priority":5,"min_zoom":10,"osm_source":"way/166120993"},"geometry":{"type":"Point","coordinates":[-64.73914542933349,32.3329208]}},{"type":"Feature","properties":{"name":"Stone Crusher Corner","source_name":"Stone Crusher Corner","kind":"reference","priority":6,"min_zoom":10,"osm_source":"node/8541258182"},"geometry":{"type":"Point","coordinates":[-64.7063559,32.36419]}},{"type":"Feature","properties":{"name":"Clearwater Beach","source_name":"Clearwater Beach","kind":"reference","priority":7,"min_zoom":10,"osm_source":"way/155080043"},"geometry":{"type":"Point","coordinates":[-64.65999422967118,32.35578635]}}]}
